*******************************************************************************
JPL/HORIZONS                  194268 (2001 UY4)            2021-Aug-15 06:25:01
Rec #:  194268 (+COV) Soln.date: 2021-Apr-13_22:23:42    # obs: 452 (2001-2019)
 
IAU76/J2000 helio. ecliptic osc. elements (au, days, deg., period=Julian yrs):
 
  EPOCH=  2456332.5 ! 2013-Feb-09.00 (TDB)         Residual RMS= .33067
   EC= .7875247590730706   QR= .3088175906198092   TP= 2456630.2241566526
   OM= 160.9394416839746   W=  107.5466553945647   IN= 5.431398047041429
   A= 1.453428593715595    MA= 192.5336334474433   ADIST= 2.598039596811381
   PER= 1.75226            N= .562488324           ANGMOM= .012780813
   DAN= .72389             DDN= .4461              L= 268.5603462
   B= 5.1779774            MOID= .0264278          TP= 2013-Dec-03.7241566526
 
Asteroid physical parameters (km, seconds, rotational period in hours):
   GM= n.a.                RAD= .622               ROTPER= 6.802
   H= 18.2                 G= .150                 B-V= n.a.
                           ALBEDO= .055            STYP= X
 
ASTEROID comments: 
1: soln ref.= JPL#78, PHA  OCC=0
2: source=ORB
*******************************************************************************
 

 

*******************************************************************************
Ephemeris / WWW_USER Sun Aug 15 06:25:01 2021 Pasadena, USA      / Horizons
*******************************************************************************
Target body name: 194268 (2001 UY4)               {source: JPL#78}
Center body name: Solar System Barycenter (0)     {source: DE441}
Center-site name: BODY CENTER
*******************************************************************************
Start time      : A.D. 2021-Aug-10 00:00:00.0000 TDB
Stop  time      : A.D. 2021-Sep-14 00:00:00.0000 TDB
Step-size       : 1440 minutes
*******************************************************************************
Center geodetic : 0.00000000,0.00000000,0.0000000 {E-lon(deg),Lat(deg),Alt(km)}
Center cylindric: 0.00000000,0.00000000,0.0000000 {E-lon(deg),Dxy(km),Dz(km)}
Center radii    : (undefined)                                                  
Small perturbers: Yes                             {source: SB441-N16}
Output units    : AU-D
Output type     : GEOMETRIC cartesian states
Output format   : 3 (position, velocity, LT, range, range-rate)
Reference frame : Ecliptic of J2000.0
*******************************************************************************
Initial IAU76/J2000 heliocentric ecliptic osculating elements (au, days, deg.):
  EPOCH=  2456332.5 ! 2013-Feb-09.00 (TDB)         Residual RMS= .33067        
   EC= .7875247590730706   QR= .3088175906198092   TP= 2456630.2241566526      
   OM= 160.9394416839746   W=  107.5466553945647   IN= 5.431398047041429       
  Equivalent ICRF heliocentric cartesian coordinates (au, au/d):
   X=-4.464217198196271E-02  Y= 2.457643077531970E+00  Z= 8.144340216566578E-01
  VX=-4.919324679142488E-03 VY=-8.602701261201746E-04 VZ=-1.243334825203473E-04
Asteroid physical parameters (km, seconds, rotational period in hours):        
   GM= n.a.                RAD= .622               ROTPER= 6.802               
   H= 18.2                 G= .150                 B-V= n.a.                   
                           ALBEDO= .055            STYP= X                     
*******************************************************************************
JDTDB
   X     Y     Z
   VX    VY    VZ
   LT    RG    RR
*******************************************************************************
$$SOE
2459457.500000000 = A.D. 2021-Aug-31 00:00:00.0000 TDB 
 X = 3.052987213957917E-01 Y = 2.524809554385590E+00 Z =-2.362028692805941E-01
 VX=-4.754416881300328E-03 VY= 2.394189127192534E-03 VZ=-6.660179787847387E-05
 LT= 1.475151772405473E-02 RG= 2.554146117719002E+00 RR= 1.804550527583977E-03
2459458.500000000 = A.D. 2021-Sep-01 00:00:00.0000 TDB 
 X = 3.005415292616760E-01 Y = 2.527181281168644E+00 Z =-2.362673653318141E-01
 VX=-4.759951349318401E-03 VY= 2.349273025794169E-03 VZ=-6.239157957012971E-05
 LT= 1.476183699849211E-02 RG= 2.555932844700927E+00 RR= 1.768910658550214E-03
2459459.500000000 = A.D. 2021-Sep-02 00:00:00.0000 TDB 
 X = 2.957788506864367E-01 Y = 2.529508117417095E+00 Z =-2.363276549696348E-01
 VX=-4.765389849090163E-03 VY= 2.304407864372759E-03 VZ=-5.818895099576350E-05
 LT= 1.477195055845034E-02 RG= 2.557683953324923E+00 RR= 1.733313656171171E-03
2459460.500000000 = A.D. 2021-Sep-03 00:00:00.0000 TDB 
 X = 2.910107813836904E-01 Y = 2.531790113491208E+00 Z =-2.363837457237017E-01
 VX=-4.770732887881439E-03 VY= 2.259592484627969E-03 VZ=-5.399379214175468E-05
 LT= 1.478185864881679E-02 RG= 2.559399485991927E+00 RR= 1.697758589950299E-03
2459461.500000000 = A.D. 2021-Sep-04 00:00:00.0000 TDB 
 X = 2.862374165657436E-01 Y = 2.534027318596285E+00 Z =-2.364356450041332E-01
 VX=-4.775980961071953E-03 VY= 2.214825734900232E-03 VZ=-4.980598396432743E-05
 LT= 1.479156150912098E-02 RG= 2.561079484175185E+00 RR= 1.662244534990520E-03
2459462.500000000 = A.D. 2021-Sep-05 00:00:00.0000 TDB 
 X = 2.814588509554053E-01 Y = 2.536219780789215E+00 Z =-2.364833601024811E-01
 VX=-4.781134552299591E-03 VY= 2.170106470000925E-03 VZ=-4.562540836975237E-05
 LT= 1.480105937356648E-02 RG= 2.562723988425790E+00 RR= 1.626770571855371E-03
2459463.500000000 = A.D. 2021-Sep-06 00:00:00.0000 TDB 
 X = 2.766751787976592E-01 Y = 2.538367546984865E+00 Z =-2.365268981926691E-01
 VX=-4.786194133600624E-03 VY= 2.125433551044594E-03 VZ=-4.145194819486421E-05
 LT= 1.481035247106209E-02 RG= 2.564333038378074E+00 RR= 1.591335786431914E-03
2459464.500000000 = A.D. 2021-Sep-07 00:00:00.0000 TDB 
 X = 2.718864938711967E-01 Y = 2.540470662962302E+00 Z =-2.365662663319167E-01
 VX=-4.791160165545963E-03 VY= 2.080805845283219E-03 VZ=-3.728548718788701E-05
 LT= 1.481944102525220E-02 RG= 2.565906672754859E+00 RR= 1.555939269795370E-03
2459465.500000000 = A.D. 2021-Sep-08 00:00:00.0000 TDB 
 X = 2.670928894998155E-01 Y = 2.542529173370841E+00 Z =-2.366014714616382E-01
 VX=-4.796033097373472E-03 VY= 2.036222225942319E-03 VZ=-3.312590998953683E-05
 LT= 1.482832525454631E-02 RG= 2.567444929372583E+00 RR= 1.520580118075325E-03
2459466.500000000 = A.D. 2021-Sep-09 00:00:00.0000 TDB 
 X = 2.622944585636880E-01 Y = 2.544543121735943E+00 Z =-2.366325204083271E-01
 VX=-4.800813367116577E-03 VY= 1.991681572059137E-03 VZ=-2.897310211445152E-05
 LT= 1.483700537214790E-02 RG= 2.568947845146279E+00 RR= 1.485257432323729E-03
2459467.500000000 = A.D. 2021-Sep-10 00:00:00.0000 TDB 
 X = 2.574912935105040E-01 Y = 2.546512550464947E+00 Z =-2.366594198844222E-01
 VX=-4.805501401729004E-03 VY= 1.947182768322488E-03 VZ=-2.482694993287138E-05
 LT= 1.484548158608247E-02 RG= 2.570415456094449E+00 RR= 1.449970318384290E-03
2459468.500000000 = A.D. 2021-Sep-11 00:00:00.0000 TDB 
 X = 2.526834863664881E-01 Y = 2.548437500852639E+00 Z =-2.366821764891510E-01
 VX=-4.810097617205915E-03 VY= 1.902724704914465E-03 VZ=-2.068734065260781E-05
 LT= 1.485375409922481E-02 RG= 2.571847797343771E+00 RR= 1.414717886763482E-03
2459469.500000000 = A.D. 2021-Sep-12 00:00:00.0000 TDB 
 X = 2.478711287473002E-01 Y = 2.550318013086668E+00 Z =-2.367007967093615E-01
 VX=-4.814602418701370E-03 VY= 1.858306277353818E-03 VZ=-1.655416230126915E-05
 LT= 1.486182310932558E-02 RG= 2.573244903133714E+00 RR= 1.379499252502974E-03
2459470.500000000 = A.D. 2021-Sep-13 00:00:00.0000 TDB 
 X = 2.430543118688189E-01 Y = 2.552154126252806E+00 Z =-2.367152869203312E-01
 VX=-4.819016200642342E-03 VY= 1.813926386341074E-03 VZ=-1.242730370876786E-05
 LT= 1.486968880903715E-02 RG= 2.574606806821000E+00 RR= 1.344313535053548E-03
2459471.500000000 = A.D. 2021-Sep-14 00:00:00.0000 TDB 
 X = 2.382331265578135E-01 Y = 2.553945878340055E+00 Z =-2.367256533865617E-01
 VX=-4.823339346839181E-03 VY= 1.769583937605200E-03 VZ=-8.306654490062869E-06
 LT= 1.487735138593870E-02 RG= 2.575933540883956E+00 RR= 1.309159858150347E-03
